NORAD_CAT_ID,OBJECT_NAME,OBJECT_TYPE,EPOCH,MEAN_MOTION,ECCENTRICITY,INCLINATION,RA_OF_ASC_NODE,ARG_OF_PERICENTER,MEAN_ANOMALY,BSTAR,MEAN_MOTION_DOT,MEAN_MOTION_DDOT,TLE_LINE0,TLE_LINE1,TLE_LINE2,SEMIMAJOR_AXIS,PERIOD,APOGEE,PERIGEE,DECAYED
50177.0,STARLINK-3282,PAYLOAD,2024-05-10 22:23:21,15.08855148,0.0001704,53.2192,6.7925,119.7244,240.3918,0.00034809,5.258e-05,0.0,0 STARLINK-3282,1 50177U 21125X   24131.93288267  .00005258  00000-0  34809-3 0  9994,2 50177  53.2192   6.7925 0001704 119.7244 240.3918 15.08855148135790,6917.834,95.437,540.878,538.52,0.0
50177.0,STARLINK-3282,PAYLOAD,2024-05-11 01:34:07,15.08874408,0.0001151,53.2185,6.1997,110.9069,249.2046,0.00080764,0.00012601,0.0,0 STARLINK-3282,1 50177U 21125X   24132.06535929  .00012601  00000-0  80764-3 0  9990,2 50177  53.2185   6.1997 0001151 110.9069 249.2046 15.08874408135328,6917.775,95.435,540.436,538.844,0.0
50177.0,STARLINK-3282,PAYLOAD,2024-05-11 22:14:07,15.0879101,0.0001312,53.2184,2.3324,92.0776,268.0366,-0.0024452,-0.00038941,0.0,0 STARLINK-3282,1 50177U 21125X   24132.92647201 -.00038941  00000-0 -24452-2 0  9990,2 50177  53.2184   2.3324 0001312  92.0776 268.0366 15.08791010135458,6918.03,95.441,540.803,538.987,0.0
50177.0,STARLINK-3282,PAYLOAD,2024-05-12 07:46:27,15.08755013,0.0001312,53.2189,0.5504,86.5939,273.5203,-0.0032185,-0.00051029,0.0,0 STARLINK-3282,1 50177U 21125X   24133.32392560 -.00051029  00000-0 -32185-2 0  9994,2 50177  53.2189   0.5504 0001312  86.5939 273.5203 15.08755013136008,6918.14,95.443,540.913,539.098,0.0
50177.0,STARLINK-3282,PAYLOAD,2024-05-12 22:04:58,15.08802071,0.0001744,53.2176,357.8749,94.301,265.8181,0.0034616,0.00055178,0.0,0 STARLINK-3282,1 50177U 21125X   24133.92011971  .00055178  00000-0  34616-2 0  9992,2 50177  53.2176 357.8749 0001744  94.3010 265.8181 15.08802071135600,6917.996,95.44,541.068,538.655,0.0
50177.0,STARLINK-3282,PAYLOAD,2024-05-13 23:31:08,15.08856542,0.000166,53.2174,353.118,99.9489,260.169,0.00065932,0.00010225,0.0,0 STARLINK-3282,1 50177U 21125X   24134.97995472  .00010225  00000-0  65932-3 0  9995,2 50177  53.2174 353.1180 0001660  99.9489 260.1690 15.08856542135766,6917.83,95.437,540.843,538.546,0.0
50177.0,STARLINK-3282,PAYLOAD,2024-05-14 07:28:03,15.08862129,0.0001642,53.2171,351.6306,101.4881,258.6295,0.0005746,8.874e-05,0.0,0 STARLINK-3282,1 50177U 21125X   24135.31114975  .00008874  00000-0  57460-3 0  9999,2 50177  53.2171 351.6306 0001642 101.4881 258.6295 15.08862129136303,6917.813,95.436,540.814,538.542,0.0
50177.0,STARLINK-3282,PAYLOAD,2024-05-14 21:46:29,15.08893707,0.0001579,53.2167,348.9543,102.6784,257.4385,0.001141,0.00017944,0.0,0 STARLINK-3282,1 50177U 21125X   24135.90729094  .00017944  00000-0  11410-2 0  9990,2 50177  53.2167 348.9543 0001579 102.6784 257.4385 15.08893707136396,6917.716,95.434,540.674,538.489,0.0
50177.0,STARLINK-3282,PAYLOAD,2024-05-14 23:21:52,15.08900261,0.0001612,53.2168,348.6571,102.8136,257.3037,0.0012974,0.00020455,0.0,0 STARLINK-3282,1 50177U 21125X   24135.97352773  .00020455  00000-0  12974-2 0  9990,2 50177  53.2168 348.6571 0001612 102.8136 257.3037 15.08900261135910,6917.696,95.434,540.676,538.446,0.0
50177.0,STARLINK-3282,PAYLOAD,2024-05-15 07:18:47,15.08913236,0.0002135,53.2166,347.1701,68.3497,291.7723,0.0012732,0.00020074,0.0,0 STARLINK-3282,1 50177U 21125X   24136.30471572  .00020074  00000-0  12732-2 0  9996,2 50177  53.2166 347.1701 0002135  68.3497 291.7723 15.08913236136454,6917.657,95.433,540.998,538.045,0.0
50177.0,STARLINK-3282,PAYLOAD,2024-05-15 20:01:52,15.08844684,0.0001601,53.218,344.7893,86.087,274.0306,-0.0005933,-9.719e-05,0.0,0 STARLINK-3282,1 50177U 21125X   24136.83464041 -.00009719  00000-0 -59330-3 0  9998,2 50177  53.2180 344.7893 0001601  86.0870 274.0306 15.08844684136040,6917.866,95.437,540.839,538.624,0.0
50177.0,STARLINK-3282,PAYLOAD,2024-05-15 21:37:16,15.08828686,0.0001498,53.2175,344.4933,75.949,284.1669,0.0015115,0.00023842,0.0,0 STARLINK-3282,1 50177U 21125X   24136.90088488  .00023842  00000-0  15115-2 0  9996,2 50177  53.2175 344.4933 0001498  75.9490 284.1669 15.08828686136548,6917.915,95.438,540.816,538.744,0.0
50177.0,STARLINK-3282,PAYLOAD,2024-05-16 13:31:08,15.08846189,0.0001917,53.2173,341.5187,79.4071,280.7137,0.0016448,0.00025991,0.0,0 STARLINK-3282,1 50177U 21125X   24137.56328972  .00025991  00000-0  16448-2 0  9991,2 50177  53.2173 341.5187 0001917  79.4071 280.7137 15.08846189136646,6917.861,95.437,541.053,538.4,0.0
50177.0,STARLINK-3282,PAYLOAD,2024-05-17 13:21:55,15.08848375,0.0001183,53.2179,337.0589,66.4205,293.6911,0.0010445,0.00016378,0.0,0 STARLINK-3282,1 50177U 21125X   24138.55689511  .00016378  00000-0  10445-2 0  9990,2 50177  53.2179 337.0589 0001183  66.4205 293.6911 15.08848375136796,6917.855,95.437,540.538,538.901,0.0
50177.0,STARLINK-3282,PAYLOAD,2024-05-17 19:43:28,15.08825098,0.0002656,53.2177,335.8665,94.2633,265.8663,0.00052568,8.085e-05,0.0,0 STARLINK-3282,1 50177U 21125X   24138.82185588  .00008085  00000-0  52568-3 0  9994,2 50177  53.2177 335.8665 0002656  94.2633 265.8663 15.08825098136348,6917.926,95.438,541.628,537.954,0.0
50177.0,STARLINK-3282,PAYLOAD,2024-05-18 19:34:15,15.08877939,0.0001011,53.2162,331.4073,79.0972,281.0134,0.0018744,0.000297,0.0,0 STARLINK-3282,1 50177U 21125X   24139.81545420  .00029700  00000-0  18744-2 0  9993,2 50177  53.2162 331.4073 0001011  79.0972 281.0134 15.08877939136498,6917.764,95.435,540.329,538.93,0.0
50177.0,STARLINK-3282,PAYLOAD,2024-05-19 13:03:29,15.08848891,8.11e-05,53.2175,328.1387,70.0357,290.0722,0.00063096,9.771e-05,0.0,0 STARLINK-3282,1 50177U 21125X   24140.54409174  .00009771  00000-0  63096-3 0  9997,2 50177  53.2175 328.1387 0000811  70.0357 290.0722 15.08848891137093,6917.853,95.437,540.279,539.157,0.0
50177.0,STARLINK-3282,PAYLOAD,2024-05-19 19:25:02,15.08809899,0.0001165,53.2178,326.9487,118.4616,241.6494,0.00072644,0.00011283,0.0,0 STARLINK-3282,1 50177U 21125X   24140.80905943  .00011283  00000-0  72644-3 0  9991,2 50177  53.2178 326.9487 0001165 118.4616 241.6494 15.08809899136644,6917.972,95.439,540.643,539.031,0.0
50177.0,STARLINK-3282,PAYLOAD,2024-05-20 12:54:18,15.08840763,0.0001045,53.2172,323.6774,124.5135,235.5956,0.0018155,0.00028724,0.0,0 STARLINK-3282,1 50177U 21125X   24141.53770891  .00028724  00000-0  18155-2 0  9998,2 50177  53.2172 323.6774 0001045 124.5135 235.5956 15.08840763137249,6917.878,95.438,540.466,539.02,0.0
50177.0,STARLINK-3282,PAYLOAD,2024-05-20 19:15:50,15.08857458,0.0001039,53.2176,322.4889,122.756,237.3532,0.0019058,0.00030188,0.0,0 STARLINK-3282,1 50177U 21125X   24141.80266701  .00030188  00000-0  19058-2 0  9998,2 50177  53.2176 322.4889 0001039 122.7560 237.3532 15.08857458136790,6917.827,95.436,540.411,538.973,0.0
50177.0,STARLINK-3282,PAYLOAD,2024-05-21 01:37:22,15.08875588,0.0001004,53.2176,321.2995,122.1152,237.9938,0.0019802,0.00031398,0.0,0 STARLINK-3282,1 50177U 21125X   24142.06762191  .00031398  00000-0  19802-2 0  9992,2 50177  53.2176 321.2995 0001004 122.1152 237.9938 15.08875588137328,6917.772,95.435,540.331,538.942,0.0
50177.0,STARLINK-3282,PAYLOAD,2024-05-21 20:42:00,15.08854253,7.18e-05,53.2174,317.7301,101.472,258.6353,0.0014532,0.00022924,0.0,0 STARLINK-3282,1 50177U 21125X   24142.86250205  .00022924  00000-0  14532-2 0  9998,2 50177  53.2174 317.7301 0000718 101.4720 258.6353 15.08854253136954,6917.837,95.437,540.199,539.205,0.0
50177.0,STARLINK-3282,PAYLOAD,2024-05-22 11:00:28,15.08851516,9.78e-05,53.2178,315.0552,104.3815,255.7285,0.00061905,9.581e-05,0.0,0 STARLINK-3282,1 50177U 21125X   24143.45866037  .00009581  00000-0  61905-3 0  9991,2 50177  53.2178 315.0552 0000978 104.3815 255.7285 15.08851516137044,6917.845,95.437,540.387,539.034,0.0
50177.0,STARLINK-3282,PAYLOAD,2024-05-23 18:48:11,15.0883712,9.78e-05,53.2169,309.1072,69.5207,290.589,7.3187e-05,8.77e-06,0.0,0 STARLINK-3282,1 50177U 21125X   24144.78346706  .00000877  00000-0  73187-4 0  9999,2 50177  53.2169 309.1072 0000978  69.5207 290.5890 15.08837120137248,6917.889,95.438,540.431,539.078,0.0
50177.0,STARLINK-3282,PAYLOAD,2024-05-24 20:14:21,15.08847207,0.0001369,53.2183,304.3458,56.4935,303.6187,0.00046931,7.19e-05,0.0,0 STARLINK-3282,1 50177U 21125X   24145.84330722  .00007190  00000-0  46931-3 0  9999,2 50177  53.2183 304.3458 0001369  56.4935 303.6187 15.08847207137407,6917.858,95.437,540.67,538.776,0.0
50177.0,STARLINK-3282,PAYLOAD,2024-05-25 13:43:36,15.08842285,0.0001151,53.2188,301.0697,115.472,244.6391,7.4473e-05,8.98e-06,0.0,0 STARLINK-3282,1 50177U 21125X   24146.57194464  .00000898  00000-0  74473-4 0  9992,2 50177  53.2188 301.0697 0001151 115.4720 244.6391 15.08842285137512,6917.873,95.437,540.535,538.942,0.0
50177.0,STARLINK-3282,PAYLOAD,2024-05-25 20:05:09,15.08834033,7.67e-05,53.2185,299.8876,90.6223,269.4857,-3.9336e-05,-9.13e-06,0.0,0 STARLINK-3282,1 50177U 21125X   24146.83690989 -.00000913  00000-0 -39336-4 0  9993,2 50177  53.2185 299.8876 0000767  90.6223 269.4857 15.08834033137554,6917.899,95.438,540.294,539.233,0.0
50177.0,STARLINK-3282,PAYLOAD,2024-05-26 15:09:46,15.08843513,7.43e-05,53.2179,296.3225,99.2854,260.8223,1.8433e-05,6e-08,0.0,0 STARLINK-3282,1 50177U 21125X   24147.63178776  .00000006  00000-0  18433-4 0  9993,2 50177  53.2179 296.3225 0000743  99.2854 260.8223 15.08843513138169,6917.87,95.437,540.249,539.221,0.0
50177.0,STARLINK-3282,PAYLOAD,2024-05-26 19:55:55,15.08848411,7.67e-05,53.2173,295.4295,96.5392,263.5687,0.00010559,1.394e-05,0.0,0 STARLINK-3282,1 50177U 21125X   24147.83050475  .00001394  00000-0  10559-3 0  9991,2 50177  53.2173 295.4295 0000767  96.5392 263.5687 15.08848411137708,6917.855,95.437,540.25,539.189,0.0
50177.0,STARLINK-3282,PAYLOAD,2024-05-27 13:25:10,15.08840339,9.53e-05,53.218,292.1573,110.7169,249.3925,0.00021729,3.172e-05,0.0,0 STARLINK-3282,1 50177U 21125X   24148.55914855  .00003172  00000-0  21729-3 0  9999,2 50177  53.2180 292.1573 0000953 110.7169 249.3925 15.08840339137817,6917.879,95.438,540.404,539.085,0.0
